[{"OBJECT_NAME":"OBJECT H","OBJECT_ID":"2023-091H","EPOCH":"2026-03-09T22:34:46.487712","MEAN_MOTION":15.26380881,"ECCENTRICITY":0.00117854,"INCLINATION":97.5166,"RA_OF_ASC_NODE":131.4381,"ARG_OF_PERICENTER":104.1062,"MEAN_ANOMALY":256.1487,"EPHEMERIS_TYPE":0,"CLASSIFICATION_TYPE":"U","NORAD_CAT_ID":57173,"ELEMENT_SET_NO":999,"REV_AT_EPOCH":14915,"BSTAR":0.00056321781,"MEAN_MOTION_DOT":0.00014617,"MEAN_MOTION_DDOT":0},{"OBJECT_NAME":"STARLINK-36796","OBJECT_ID":"2026-026B","EPOCH":"2026-03-09T22:00:01.999584","MEAN_MOTION":15.45185741,"ECCENTRICITY":0.00015889,"INCLINATION":97.2844,"RA_OF_ASC_NODE":123.4256,"ARG_OF_PERICENTER":75.696,"MEAN_ANOMALY":314.6679,"EPHEMERIS_TYPE":0,"CLASSIFICATION_TYPE":"U","NORAD_CAT_ID":67722,"ELEMENT_SET_NO":999,"REV_AT_EPOCH":535,"BSTAR":-0.043649148,"MEAN_MOTION_DOT":-0.01861322,"MEAN_MOTION_DDOT":0}]
